{"type": "FeatureCollection", "features": [ {"type": "Feature", "properties": {"norad_id": 34682, "name": "COSMOS 2251 DEB", "group": "cosmos-2251-debris", "lat": 22.528218012498066, "lon": 93.84297248582826, "alt_km": 708.7339372754868, "timestamp": "2025-12-10T14:53:37.482831+00:00", "meta": {"OBJECT_NAME": "COSMOS 2251 DEB", "OBJECT_ID": "1993-036YC", "EPOCH": "2025-12-08T13:28:57.741024", "MEAN_MOTION": 14.58847249, "ECCENTRICITY": 0.0018543, "INCLINATION": 74.04, "RA_OF_ASC_NODE": 90.9444, "ARG_OF_PERICENTER": 224.1225, "MEAN_ANOMALY": 151.2779, "EPHEMERIS_TYPE": 0, "CLASSIFICATION_TYPE": "U", "NORAD_CAT_ID": 34682, "ELEMENT_SET_NO": 999, "REV_AT_EPOCH": 88625, "BSTAR": 0.0013547, "MEAN_MOTION_DOT": 6.331e-05, "MEAN_MOTION_DDOT": 0}, "tle": {"line1": "1 34682U 93036YC  25342.56177941  .00006331  00000+0  13547-2 0  9994", "line2": "2 34682  74.0400  90.9444 0018543 224.1225 151.2779 14.58847249886252"}}, "geometry": {"type": "Point", "coordinates": [93.84297248582826, 22.528218012498066]}}, {"type": "Feature", "properties": {"norad_id": 34683, "name": "COSMOS 2251 DEB", "group": "cosmos-2251-debris", "lat": 44.34793375198643, "lon": -99.91556382149332, "alt_km": 672.0012353125967, "timestamp": "2025-12-10T14:53:37.482840+00:00", "meta": {"OBJECT_NAME": "COSMOS 2251 DEB", "OBJECT_ID": "1993-036YD", "EPOCH": "2025-12-10T07:52:12.654336", "MEAN_MOTION": 14.64430031, "ECCENTRICITY": 0.00183982, "INCLINATION": 74.0288, "RA_OF_ASC_NODE": 96.9038, "ARG_OF_PERICENTER": 211.6698, "MEAN_ANOMALY": 179.6221, "EPHEMERIS_TYPE": 0, "CLASSIFICATION_TYPE": "U", "NORAD_CAT_ID": 34683, "ELEMENT_SET_NO": 999, "REV_AT_EPOCH": 88313, "BSTAR": 0.0022290062, "MEAN_MOTION_DOT": 0.00011813, "MEAN_MOTION_DDOT": 0}, "tle": {"line1": "1 34683U 93036YD  25344.32792424  .00011813  00000+0  22290-2 0  9996", "line2": "2 34683  74.0288  96.9038 0018398 211.6698 179.6221 14.64430031883139"}}, "geometry": {"type": "Point", "coordinates": [-99.91556382149332, 44.34793375198643]}}, {"type": "Feature", "properties": {"norad_id": 34685, "name": "COSMOS 2251 DEB", "group": "cosmos-2251-debris", "lat": -21.700089556325803, "lon": 146.26807397817183, "alt_km": 704.6969774083809, "timestamp": "2025-12-10T14:53:37.482849+00:00", "meta": {"OBJECT_NAME": "COSMOS 2251 DEB", "OBJECT_ID": "1993-036YF", "EPOCH": "2025-12-09T21:34:32.189952", "MEAN_MOTION": 14.57463566, "ECCENTRICITY": 0.00143092, "INCLINATION": 74.0292, "RA_OF_ASC_NODE": 154.1834, "ARG_OF_PERICENTER": 258.2035, "MEAN_ANOMALY": 254.5837, "EPHEMERIS_TYPE": 0, "CLASSIFICATION_TYPE": "U", "NORAD_CAT_ID": 34685, "ELEMENT_SET_NO": 999, "REV_AT_EPOCH": 88490, "BSTAR": 0.0014291347, "MEAN_MOTION_DOT": 6.476e-05, "MEAN_MOTION_DDOT": 0}, "tle": {"line1": "1 34685U 93036YF  25343.89898368  .00006476  00000+0  14291-2 0  9994", "line2": "2 34685  74.0292 154.1834 0014309 258.2035 254.5837 14.57463566884900"}}, "geometry": {"type": "Point", "coordinates": [146.26807397817183, -21.700089556325803]}}, {"type": "Feature", "properties": {"norad_id": 34689, "name": "COSMOS 2251 DEB", "group": "cosmos-2251-debris", "lat": -39.666257685968596, "lon": 60.760188715444905, "alt_km": 838.020113340197, "timestamp": "2025-12-10T14:53:37.482858+00:00", "meta": {"OBJECT_NAME": "COSMOS 2251 DEB", "OBJECT_ID": "1993-036YK", "EPOCH": "2025-12-09T15:43:43.204224", "MEAN_MOTION": 14.04380278, "ECCENTRICITY": 0.022877, "INCLINATION": 74.0977, "RA_OF_ASC_NODE": 228.7634, "ARG_OF_PERICENTER": 298.3373, "MEAN_ANOMALY": 87.6678, "EPHEMERIS_TYPE": 0, "CLASSIFICATION_TYPE": "U", "NORAD_CAT_ID": 34689, "ELEMENT_SET_NO": 999, "REV_AT_EPOCH": 84298, "BSTAR": 0.0057121, "MEAN_MOTION_DOT": 0.00011476, "MEAN_MOTION_DDOT": 0}, "tle": {"line1": "1 34689U 93036YK  25343.65536116  .00011476  00000+0  57121-2 0  9997", "line2": "2 34689  74.0977 228.7634 0228770 298.3373  87.6678 14.04380278842989"}}, "geometry": {"type": "Point", "coordinates": [60.760188715444905, -39.666257685968596]}}, {"type": "Feature", "properties": {"norad_id": 34721, "name": "COSMOS 2251 DEB", "group": "cosmos-2251-debris", "lat": -44.09121203655905, "lon": -46.29510037232662, "alt_km": 792.9456028479844, "timestamp": "2025-12-10T14:53:37.482867+00:00", "meta": {"OBJECT_NAME": "COSMOS 2251 DEB", "OBJECT_ID": "1993-036YP", "EPOCH": "2025-12-08T23:44:20.442336", "MEAN_MOTION": 13.96821392, "ECCENTRICITY": 0.02238657, "INCLINATION": 73.9235, "RA_OF_ASC_NODE": 332.7561, "ARG_OF_PERICENTER": 272.3834, "MEAN_ANOMALY": 118.8256, "EPHEMERIS_TYPE": 0, "CLASSIFICATION_TYPE": "U", "NORAD_CAT_ID": 34721, "ELEMENT_SET_NO": 999, "REV_AT_EPOCH": 85097, "BSTAR": 0.0019617403, "MEAN_MOTION_DOT": 3.345e-05, "MEAN_MOTION_DDOT": 0}, "tle": {"line1": "1 34721U 93036YP  25342.98912549  .00003345  00000+0  19617-2 0  9991", "line2": "2 34721  73.9235 332.7561 0223865 272.3834 118.8256 13.96821392850974"}}, "geometry": {"type": "Point", "coordinates": [-46.29510037232662, -44.09121203655905]}}, {"type": "Feature", "properties": {"norad_id": 34722, "name": "COSMOS 2251 DEB", "group": "cosmos-2251-debris", "lat": 59.10917392449632, "lon": 8.769638005181411, "alt_km": 958.217871282176, "timestamp": "2025-12-10T14:53:37.482876+00:00", "meta": {"OBJECT_NAME": "COSMOS 2251 DEB", "OBJECT_ID": "1993-036YQ", "EPOCH": "2025-12-10T01:16:07.902336", "MEAN_MOTION": 14.11920598, "ECCENTRICITY": 0.01672443, "INCLINATION": 73.873, "RA_OF_ASC_NODE": 340.8603, "ARG_OF_PERICENTER": 266.8841, "MEAN_ANOMALY": 151.2497, "EPHEMERIS_TYPE": 0, "CLASSIFICATION_TYPE": "U", "NORAD_CAT_ID": 34722, "ELEMENT_SET_NO": 999, "REV_AT_EPOCH": 86207, "BSTAR": 0.0011883967, "MEAN_MOTION_DOT": 2.452e-05, "MEAN_MOTION_DDOT": 0}, "tle": {"line1": "1 34722U 93036YQ  25344.05286924  .00002452  00000+0  11884-2 0  9999", "line2": "2 34722  73.8730 340.8603 0167244 266.8841 151.2497 14.11920598862073"}}, "geometry": {"type": "Point", "coordinates": [8.769638005181411, 59.10917392449632]}}, {"type": "Feature", "properties": {"norad_id": 34726, "name": "COSMOS 2251 DEB", "group": "cosmos-2251-debris", "lat": 73.90324193841263, "lon": 73.30493292146959, "alt_km": 669.8321948846278, "timestamp": "2025-12-10T14:53:37.482886+00:00", "meta": {"OBJECT_NAME": "COSMOS 2251 DEB", "OBJECT_ID": "1993-036YU", "EPOCH": "2025-12-10T02:58:32.457792", "MEAN_MOTION": 14.59465527, "ECCENTRICITY": 0.00420967, "INCLINATION": 74.0291, "RA_OF_ASC_NODE": 351.3133, "ARG_OF_PERICENTER": 142.9873, "MEAN_ANOMALY": 217.421, "EPHEMERIS_TYPE": 0, "CLASSIFICATION_TYPE": "U", "NORAD_CAT_ID": 34726, "ELEMENT_SET_NO": 999, "REV_AT_EPOCH": 88464, "BSTAR": 0.00055032613, "MEAN_MOTION_DOT": 2.613e-05, "MEAN_MOTION_DDOT": 0}, "tle": {"line1": "1 34726U 93036YU  25344.12398678  .00002613  00000+0  55033-3 0  9995", "line2": "2 34726  74.0291 351.3133 0042096 142.9873 217.4210 14.59465527884646"}}, "geometry": {"type": "Point", "coordinates": [73.30493292146959, 73.90324193841263]}}, {"type": "Feature", "properties": {"norad_id": 34728, "name": "COSMOS 2251 DEB", "group": "cosmos-2251-debris", "lat": -56.288461259187606, "lon": 101.3296552109087, "alt_km": 693.8743272172887, "timestamp": "2025-12-10T14:53:37.482895+00:00", "meta": {"OBJECT_NAME": "COSMOS 2251 DEB", "OBJECT_ID": "1993-036YW", "EPOCH": "2025-12-09T11:41:21.069888", "MEAN_MOTION": 14.70794927, "ECCENTRICITY": 0.00409671, "INCLINATION": 74.0171, "RA_OF_ASC_NODE": 258.0914, "ARG_OF_PERICENTER": 56.6298, "MEAN_ANOMALY": 303.8783, "EPHEMERIS_TYPE": 0, "CLASSIFICATION_TYPE": "U", "NORAD_CAT_ID": 34728, "ELEMENT_SET_NO": 999, "REV_AT_EPOCH": 88752, "BSTAR": 0.0012390282, "MEAN_MOTION_DOT": 7.642e-05, "MEAN_MOTION_DDOT": 0}, "tle": {"line1": "1 34728U 93036YW  25343.48704942  .00007642  00000+0  12390-2 0  9995", "line2": "2 34728  74.0171 258.0914 0040967  56.6298 303.8783 14.70794927887529"}}, "geometry": {"type": "Point", "coordinates": [101.3296552109087, -56.288461259187606]}}, {"type": "Feature", "properties": {"norad_id": 34729, "name": "COSMOS 2251 DEB", "group": "cosmos-2251-debris", "lat": 16.494216009808685, "lon": 177.75943465091953, "alt_km": 614.716029808752, "timestamp": "2025-12-10T14:53:37.482904+00:00", "meta": {"OBJECT_NAME": "COSMOS 2251 DEB", "OBJECT_ID": "1993-036YX", "EPOCH": "2025-12-10T07:44:58.384608", "MEAN_MOTION": 14.82681902, "ECCENTRICITY": 0.00118809, "INCLINATION": 74.0185, "RA_OF_ASC_NODE": 3.2166, "ARG_OF_PERICENTER": 123.7003, "MEAN_ANOMALY": 250.6993, "EPHEMERIS_TYPE": 0, "CLASSIFICATION_TYPE": "U", "NORAD_CAT_ID": 34729, "ELEMENT_SET_NO": 999, "REV_AT_EPOCH": 88422, "BSTAR": 0.0026934281, "MEAN_MOTION_DOT": 0.00021789, "MEAN_MOTION_DDOT": 0}, "tle": {"line1": "1 34729U 93036YX  25344.32289797  .00021789  00000+0  26934-2 0  9993", "line2": "2 34729  74.0185   3.2166 0011880 123.7003 250.6993 14.82681902884223"}}, "geometry": {"type": "Point", "coordinates": [177.75943465091953, 16.494216009808685]}}, {"type": "Feature", "properties": {"norad_id": 34732, "name": "COSMOS 2251 DEB", "group": "cosmos-2251-debris", "lat": -57.12112484885319, "lon": 70.87783980676488, "alt_km": 722.9134210961302, "timestamp": "2025-12-10T14:53:37.482913+00:00", "meta": {"OBJECT_NAME": "COSMOS 2251 DEB", "OBJECT_ID": "1993-036ZA", "EPOCH": "2025-12-10T07:00:38.331648", "MEAN_MOTION": 14.47296381, "ECCENTRICITY": 0.00404387, "INCLINATION": 74.0451, "RA_OF_ASC_NODE": 97.7594, "ARG_OF_PERICENTER": 249.2333, "MEAN_ANOMALY": 138.9201, "EPHEMERIS_TYPE": 0, "CLASSIFICATION_TYPE": "U", "NORAD_CAT_ID": 34732, "ELEMENT_SET_NO": 999, "REV_AT_EPOCH": 88108, "BSTAR": 0.00026368417, "MEAN_MOTION_DOT": 9.47e-06, "MEAN_MOTION_DDOT": 0}, "tle": {"line1": "1 34732U 93036ZA  25344.29211032  .00000947  00000+0  26368-3 0  9995", "line2": "2 34732  74.0451  97.7594 0040438 249.2333 138.9201 14.47296381881082"}}, "geometry": {"type": "Point", "coordinates": [70.87783980676488, -57.12112484885319]}}]}